56067,ONEWEB-0578,2023,108.94,148.0,+,87.94,Active,1,LEO,India,UK,Commercial,Communications,LVM3,1 56067U 23043X   24289.44470739  .00000107  00000+0  22719-3 0  9990,2 56067  87.9363   5.4091 0001755  98.0453 262.0880 13.21825772 77680,13.21825772,0.0001755,LEO
56068,ONEWEB-0579,2023,108.94,148.0,+,87.94,Active,1,LEO,India,UK,Commercial,Communications,LVM3,1 56068U 23043Y   24289.51094836  .00000038  00000+0  61022-4 0  9993,2 56068  87.9361   5.3899 0002235 104.3964 255.7418 13.21824740 77709,13.2182474,0.0002235,LEO
56069,ONEWEB-0581,2023,109.37,148.0,+,87.91,Active,1,LEO,India,UK,Commercial,Communications,LVM3,1 56069U 23043Z   24289.19865775 -.00000133  00000+0 -38074-3 0  9994,2 56069  87.9139 350.3018 0001889 116.9240 243.2084 13.16592262 78694,13.16592262,0.0001889,LEO
56070,ONEWEB-0609,2023,109.46,148.0,+,87.91,Active,1,LEO,India,UK,Commercial,Communications,LVM3,1 56070U 23043AA  24289.28003896  .00000011  00000+0 -58437-5 0  9995,2 56070  87.9125  20.6057 0001903  98.1682 261.9664 13.15546408 76249,13.15546408,0.0001903,LEO
56071,ONEWEB-0613,2023,109.46,148.0,+,87.91,Active,1,LEO,India,UK,Commercial,Communications,LVM3,1 56071U 23043AB  24289.27528102 -.00000014  00000+0 -71168-4 0  9996,2 56071  87.9130  20.6076 0002183 102.7839 257.3536 13.15545584 76245,13.15545584,0.0002183,LEO
56072,ONEWEB-0630,2023,109.46,148.0,+,87.91,Active,1,LEO,India,UK,Commercial,Communications,LVM3,1 56072U 23043AC  24289.49871079  .00000102  00000+0  23610-3 0  9999,2 56072  87.9128  20.5503 0002194  99.4821 260.6558 13.15551677 76265,13.15551677,0.0002194,LEO
56073,ONEWEB-0632,2023,109.46,148.0,+,87.91,Active,1,LEO,India,UK,Commercial,Communications,LVM3,1 56073U 23043AD  24289.49394842  .00000075  00000+0  16619-3 0  9998,2 56073  87.9128  20.5703 0001883 111.7827 248.3504 13.15545609 76268,13.15545609,0.0001883,LEO
56074,ONEWEB-0633,2023,109.46,148.0,+,87.91,Active,1,LEO,India,UK,Commercial,Communications,LVM3,1 56074U 23043AE  24289.48761684  .00000094  00000+0  21699-3 0  9995,2 56074  87.9124  20.5488 0002306  95.4551 264.6843 13.15546924 76244,13.15546924,0.0002306,LEO
